[{"OBJECT_NAME":"STARLINK-34134","OBJECT_ID":"2025-095K","EPOCH":"2026-03-09T22:00:01.999584","MEAN_MOTION":15.27539038,"ECCENTRICITY":0.00014459,"INCLINATION":43.0011,"RA_OF_ASC_NODE":175.0537,"ARG_OF_PERICENTER":272.2952,"MEAN_ANOMALY":0.4992,"EPHEMERIS_TYPE":0,"CLASSIFICATION_TYPE":"U","NORAD_CAT_ID":63899,"ELEMENT_SET_NO":999,"REV_AT_EPOCH":575,"BSTAR":-0.00035635985,"MEAN_MOTION_DOT":-0.00010043,"MEAN_MOTION_DDOT":0},{"OBJECT_NAME":"GEOSCAN 5 (RS92S5)","OBJECT_ID":"2025-155R","EPOCH":"2026-03-09T22:01:07.273920","MEAN_MOTION":15.30265233,"ECCENTRICITY":0.00070849,"INCLINATION":97.4462,"RA_OF_ASC_NODE":37.7456,"ARG_OF_PERICENTER":154.5846,"MEAN_ANOMALY":205.5745,"EPHEMERIS_TYPE":0,"CLASSIFICATION_TYPE":"U","NORAD_CAT_ID":64891,"ELEMENT_SET_NO":999,"REV_AT_EPOCH":6562,"BSTAR":0.00068639307,"MEAN_MOTION_DOT":0.00020065,"MEAN_MOTION_DDOT":0}]
